EUTELSAT 21B            
1 38992U 12062B   25243.90183490  .00000133  00000+0  00000+0 0  9997
2 38992   0.0716  10.6086 0002532 156.9127 159.0381  1.00272697 46923
EUTELSAT 70B            
1 39020U 12069A   25243.89639845 -.00000040  00000+0  00000+0 0  9993
2 39020   0.0678  12.6407 0003566 151.5803 209.2830  1.00272100 46603
EUTELSAT 117 WEST A     
1 39122U 13012A   25243.64515579 -.00000009  00000+0  00000+0 0  9990
2 39122   0.0621 284.7781 0002944 243.1202 287.6184  1.00270781 45537
EUTELSAT 7B             
1 39163U 13022A   25243.91294771  .00000051  00000+0  00000+0 0  9990
2 39163   0.0693 340.8597 0001537  75.2835 259.8381  1.00271842 45059
EXPRESS-AT1             
1 39612U 14010A   25243.96492587  .00000082  00000+0  00000+0 0  9991
2 39612   0.0208 239.9839 0001005 208.4280 295.3502  1.00272525 41911
EXPRESS-AT2             
1 39613U 14010B   25244.26702416 -.00000278  00000+0  00000+0 0  9999
2 39613   0.0147 151.6519 0000045 298.8399 126.1571  1.00270513 41604
EUTELSAT 3B             
1 39773U 14030A   25243.91294771  .00000024  00000+0  00000+0 0  9997
2 39773   0.0665  10.8867 0004274 147.0088 154.1872  1.00273191 41167
EUTELSAT 115 WEST B     
1 40425U 15010B   25243.64550245 -.00000021  00000+0  00000+0 0  9991
2 40425   0.0127  34.5267 0000319 239.4085 183.6076  1.00270665 38490
